
    {
        "ARG_OF_PERICENTER": 23.519,
        "BSTAR": 0.00011742,
        "CLASSIFICATION_TYPE": "U",
        "ECCENTRICITY": 0.0007349,
        "ELEMENT_SET_NO": 999,
        "EPHEMERIS_TYPE": 0,
        "EPOCH": "2026-05-04T18:43:40.327104",
        "INCLINATION": 51.6304,
        "MEAN_ANOMALY": 336.6133,
        "MEAN_MOTION": 15.49094049,
        "MEAN_MOTION_DDOT": 0,
        "MEAN_MOTION_DOT": 6.047e-05,
        "NORAD_CAT_ID": 68319,
        "OBJECT_ID": "2026-058A",
        "OBJECT_NAME": "PROGRESS-MS 33",
        "RA_OF_ASC_NODE": 154.9608,
        "REV_AT_EPOCH": 679
    },
    {
        "ARG_OF_PERICENTER": 22.3552,
        "BSTAR": 0.00011871527,
        "CLASSIFICATION_TYPE": "U",
        "ECCENTRICITY": 0.00073246,
        "ELEMENT_SET_NO": 999,
        "EPHEMERIS_TYPE": 0,
        "EPOCH": "2026-05-04T10:59:11.425632",
        "INCLINATION": 51.6305,
        "MEAN_ANOMALY": 337.7754,
        "MEAN_MOTION": 15.49089675,
        "MEAN_MOTION_DDOT": 0,
        "MEAN_MOTION_DOT": 6.118e-05,
        "NORAD_CAT_ID": 68689,
        "OBJECT_ID": "2026-079A",
        "OBJECT_NAME": "CYGNUS NG-24",
        "RA_OF_ASC_NODE": 156.557,
        "REV_AT_EPOCH": 371
    },
    {
        "ARG_OF_PERICENTER": 22.3552,
        "BSTAR": 0.00011871527,
        "CLASSIFICATION_TYPE": "U",
        "ECCENTRICITY": 0.00073246,
        "ELEMENT_SET_NO": 999,
        "EPHEMERIS_TYPE": 0,
        "EPOCH": "2026-05-04T10:59:11.425632",
        "INCLINATION": 51.6305,
        "MEAN_ANOMALY": 337.7754,
        "MEAN_MOTION": 15.49089675,
        "MEAN_MOTION_DDOT": 0,
        "MEAN_MOTION_DOT": 6.118e-05,
        "NORAD_CAT_ID": 68837,
        "OBJECT_ID": "2026-093A",
        "OBJECT_NAME": "PROGRESS-MS 34",
        "RA_OF_ASC_NODE": 156.557,
        "REV_AT_EPOCH": 121
    }