PROGRESS-MS 33          
1 68319U 26058A   26124.78032786  .00006047  00000+0  11742-3 0  9998
2 68319  51.6304 154.9608 0007349  23.5190 336.6133 15.49094049  6796
CYGNUS NG-24            
1 68689U 26079A   26124.45777113  .00006118  00000+0  11872-3 0  9998
2 68689  51.6305 156.5570 0007324  22.3552 337.7754 15.49089675  3714
PROGRESS-MS 34          
1 68837U 26093A   26124.45777113  .00006118  00000+0  11872-3 0  9999
2 68837  51.6305 156.5570 0007324  22.3552 337.7754 15.49089675  1212
